{
  "type": "FeatureCollection",
  "features": [
    {
      "type": "Feature",
      "properties": {
        "norad_id": 64902,
        "name": "CO3D 2",
        "group": "resource",
        "lat": 81.69837868979724,
        "lon": 3.8783387035115413,
        "alt_km": 496.77544860546277,
        "timestamp": "2025-12-16T21:38:56.827815+00:00",
        "meta_object_name": "CO3D 2",
        "meta_object_id": "2025-156D",
        "meta_epoch": "2025-12-12T21:01:26.694624",
        "meta_mean_motion": 15.22031437,
        "meta_eccentricity": 0.00203863,
        "meta_inclination": 97.4215,
        "meta_ra_of_asc_node": 63.2016,
        "meta_arg_of_pericenter": 351.3096,
        "meta_mean_anomaly": 8.7784,
        "meta_ephemeris_type": 0,
        "meta_classification_type": "U",
        "meta_norad_cat_id": 64902,
        "meta_element_set_no": 999,
        "meta_rev_at_epoch": 2122,
        "meta_bstar": 0.00010503321,
        "meta_mean_motion_dot": 2.342e-05,
        "meta_mean_motion_ddot": 0,
        "tle_line1": "1 64902U 25156D   25346.87600341  .00002342  00000+0  10503-3 0  9991",
        "tle_line2": "2 64902  97.4215  63.2016 0020386 351.3096   8.7784 15.22031437 21224"
      },
      "geometry": {
        "type": "Point",
        "coordinates": [
          3.8783387035115413,
          81.69837868979724
        ]
      }
    },
    {
      "type": "Feature",
      "properties": {
        "norad_id": 64903,
        "name": "CO3D 1",
        "group": "resource",
        "lat": 60.28509657795006,
        "lon": 53.413385086918794,
        "alt_km": 514.3359040547184,
        "timestamp": "2025-12-16T21:38:56.827826+00:00",
        "meta_object_name": "CO3D 1",
        "meta_object_id": "2025-156E",
        "meta_epoch": "2025-12-16T04:00:25.468416",
        "meta_mean_motion": 15.20791505,
        "meta_eccentricity": 0.00972738,
        "meta_inclination": 97.3553,
        "meta_ra_of_asc_node": 65.7768,
        "meta_arg_of_pericenter": 168.7709,
        "meta_mean_anomaly": 191.573,
        "meta_ephemeris_type": 0,
        "meta_classification_type": "U",
        "meta_norad_cat_id": 64903,
        "meta_element_set_no": 999,
        "meta_rev_at_epoch": 2172,
        "meta_bstar": 0.00030129064,
        "meta_mean_motion_dot": 7.477e-05,
        "meta_mean_motion_ddot": 0,
        "tle_line1": "1 64903U 25156E   25350.16696144  .00007477  00000+0  30129-3 0  9995",
        "tle_line2": "2 64903  97.3553  65.7768 0097273 168.7709 191.5730 15.20791505 21724"
      },
      "geometry": {
        "type": "Point",
        "coordinates": [
          53.413385086918794,
          60.28509657795006
        ]
      }
    },
    {
      "type": "Feature",
      "properties": {
        "norad_id": 66514,
        "name": "SENTINEL-6B",
        "group": "resource",
        "lat": -31.597134441615943,
        "lon": -10.34061084137371,
        "alt_km": 1336.9413734429827,
        "timestamp": "2025-12-16T21:38:56.827836+00:00",
        "meta_object_name": "SENTINEL-6B",
        "meta_object_id": "2025-264A",
        "meta_epoch": "2025-12-12T06:01:21.430272",
        "meta_mean_motion": 12.81479576,
        "meta_eccentricity": 0.0007847,
        "meta_inclination": 66.0385,
        "meta_ra_of_asc_node": 163.4531,
        "meta_arg_of_pericenter": 270.1745,
        "meta_mean_anomaly": 89.8371,
        "meta_ephemeris_type": 0,
        "meta_classification_type": "U",
        "meta_norad_cat_id": 66514,
        "meta_element_set_no": 999,
        "meta_rev_at_epoch": 322,
        "meta_bstar": 0.00018864317,
        "meta_mean_motion_dot": -1.7e-07,
        "meta_mean_motion_ddot": 0,
        "tle_line1": "1 66514U 25264A   25346.25094248 -.00000017  00000+0  18864-3 0  9993",
        "tle_line2": "2 66514  66.0385 163.4531 0007847 270.1745  89.8371 12.81479576  3220"
      },
      "geometry": {
        "type": "Point",
        "coordinates": [
          -10.34061084137371,
          -31.597134441615943
        ]
      }
    }
  ]
}